CCSDS_OMM_VERS = 2.0
CREATION_DATE  = 
ORIGINATOR     = 

OBJECT_NAME    = STARLINK-36708
OBJECT_ID      = 2026-025W
CENTER_NAME    = EARTH
REF_FRAME      = TEME
TIME_SYSTEM    = UTC
MEAN_ELEMENT_THEORY = SGP/SGP4

EPOCH          = 2026-02-16T06:00:02.000160
MEAN_MOTION    = 16.03929288
ECCENTRICITY   = .00013914
INCLINATION    = 97.2759
RA_OF_ASC_NODE = 157.6222
ARG_OF_PERICENTER = 50.5425
MEAN_ANOMALY   = 5.2978

EPHEMERIS_TYPE = 0
CLASSIFICATION_TYPE = U
NORAD_CAT_ID   = 67713
ELEMENT_SET_NO = 999
REV_AT_EPOCH   = 246
BSTAR          = -.16911974E-2
MEAN_MOTION_DOT = -.1072257E-1
MEAN_MOTION_DDOT = .39027926E-3

CCSDS_OMM_VERS = 2.0
CREATION_DATE  = 
ORIGINATOR     = 

OBJECT_NAME    = STARLINK-36702
OBJECT_ID      = 2026-025X
CENTER_NAME    = EARTH
REF_FRAME      = TEME
TIME_SYSTEM    = UTC
MEAN_ELEMENT_THEORY = SGP/SGP4

EPOCH          = 2026-02-16T06:00:02.000160
MEAN_MOTION    = 16.03735485
ECCENTRICITY   = .00015629
INCLINATION    = 97.2759
RA_OF_ASC_NODE = 157.6209
ARG_OF_PERICENTER = 50.1484
MEAN_ANOMALY   = 2.3086

EPHEMERIS_TYPE = 0
CLASSIFICATION_TYPE = U
NORAD_CAT_ID   = 67714
ELEMENT_SET_NO = 999
REV_AT_EPOCH   = 219
BSTAR          = -.1745549E-2
MEAN_MOTION_DOT = -.1093879E-1
MEAN_MOTION_DDOT = .40403012E-3

CCSDS_OMM_VERS = 2.0
CREATION_DATE  = 
ORIGINATOR     = 

OBJECT_NAME    = STARLINK-36718
OBJECT_ID      = 2026-025Y
CENTER_NAME    = EARTH
REF_FRAME      = TEME
TIME_SYSTEM    = UTC
MEAN_ELEMENT_THEORY = SGP/SGP4

EPOCH          = 2026-02-16T06:00:02.000160
MEAN_MOTION    = 16.04406023
ECCENTRICITY   = .00013157
INCLINATION    = 97.2760
RA_OF_ASC_NODE = 157.6260
ARG_OF_PERICENTER = 54.1652
MEAN_ANOMALY   = 9.6135

EPHEMERIS_TYPE = 0
CLASSIFICATION_TYPE = U
NORAD_CAT_ID   = 67715
ELEMENT_SET_NO = 999
REV_AT_EPOCH   = 240
BSTAR          = -.16293486E-2
MEAN_MOTION_DOT = -.1062926E-1
MEAN_MOTION_DDOT = .38620648E-3

CCSDS_OMM_VERS = 2.0
CREATION_DATE  = 
ORIGINATOR     = 

OBJECT_NAME    = STARLINK-36715
OBJECT_ID      = 2026-025Z
CENTER_NAME    = EARTH
REF_FRAME      = TEME
TIME_SYSTEM    = UTC
MEAN_ELEMENT_THEORY = SGP/SGP4

EPOCH          = 2026-02-16T06:00:02.000160
MEAN_MOTION    = 16.04182731
ECCENTRICITY   = .00014722
INCLINATION    = 97.2757
RA_OF_ASC_NODE = 157.6243
ARG_OF_PERICENTER = 51.9726
MEAN_ANOMALY   = 8.0637

EPHEMERIS_TYPE = 0
CLASSIFICATION_TYPE = U
NORAD_CAT_ID   = 67716
ELEMENT_SET_NO = 999
REV_AT_EPOCH   = 246
BSTAR          = -.16548003E-2
MEAN_MOTION_DOT = -.1065225E-1
MEAN_MOTION_DDOT = .38672167E-3

CCSDS_OMM_VERS = 2.0
CREATION_DATE  = 
ORIGINATOR     = 

OBJECT_NAME    = STARLINK-36385
OBJECT_ID      = 2026-025AA
CENTER_NAME    = EARTH
REF_FRAME      = TEME
TIME_SYSTEM    = UTC
MEAN_ELEMENT_THEORY = SGP/SGP4

EPOCH          = 2026-02-16T06:00:02.000160
MEAN_MOTION    = 16.03494050
ECCENTRICITY   = .00015215
INCLINATION    = 97.2762
RA_OF_ASC_NODE = 157.6196
ARG_OF_PERICENTER = 51.9381
MEAN_ANOMALY   = 356.4942

EPHEMERIS_TYPE = 0
CLASSIFICATION_TYPE = U
NORAD_CAT_ID   = 67717
ELEMENT_SET_NO = 999
REV_AT_EPOCH   = 246
BSTAR          = -.1780814E-2
MEAN_MOTION_DOT = -.1100065E-1
MEAN_MOTION_DDOT = .40710432E-3

CCSDS_OMM_VERS = 2.0
CREATION_DATE  = 
ORIGINATOR     = 

OBJECT_NAME    = CZ-2F DEB
OBJECT_ID      = 2026-024E
CENTER_NAME    = EARTH
REF_FRAME      = TEME
TIME_SYSTEM    = UTC
MEAN_ELEMENT_THEORY = SGP/SGP4

EPOCH          = 2026-02-16T06:07:21.994752
MEAN_MOTION    = 15.16116406
ECCENTRICITY   = .02628397
INCLINATION    = 50.3138
RA_OF_ASC_NODE = 123.3407
ARG_OF_PERICENTER = 195.7727
MEAN_ANOMALY   = 163.4927

EPHEMERIS_TYPE = 0
CLASSIFICATION_TYPE = U
NORAD_CAT_ID   = 67718
ELEMENT_SET_NO = 999
REV_AT_EPOCH   = 137
BSTAR          = .53008329E-2
MEAN_MOTION_DOT = .263491E-2
MEAN_MOTION_DDOT = 0

CCSDS_OMM_VERS = 2.0
CREATION_DATE  = 
ORIGINATOR     = 

OBJECT_NAME    = CZ-2F DEB
OBJECT_ID      = 2026-024F
CENTER_NAME    = EARTH
REF_FRAME      = TEME
TIME_SYSTEM    = UTC
MEAN_ELEMENT_THEORY = SGP/SGP4

EPOCH          = 2026-02-16T07:14:33.312480
MEAN_MOTION    = 14.96876595
ECCENTRICITY   = .03353036
INCLINATION    = 49.7910
RA_OF_ASC_NODE = 124.3295
ARG_OF_PERICENTER = 185.7964
MEAN_ANOMALY   = 173.9053

EPHEMERIS_TYPE = 0
CLASSIFICATION_TYPE = U
NORAD_CAT_ID   = 67719
ELEMENT_SET_NO = 999
REV_AT_EPOCH   = 103
BSTAR          = .49908392E-2
MEAN_MOTION_DOT = .194151E-2
MEAN_MOTION_DDOT = 0

CCSDS_OMM_VERS = 2.0
CREATION_DATE  = 
ORIGINATOR     = 

OBJECT_NAME    = CZ-2F DEB
OBJECT_ID      = 2026-024G
CENTER_NAME    = EARTH
REF_FRAME      = TEME
TIME_SYSTEM    = UTC
MEAN_ELEMENT_THEORY = SGP/SGP4

EPOCH          = 2026-02-16T06:01:45.375168
MEAN_MOTION    = 14.94186481
ECCENTRICITY   = .03461424
INCLINATION    = 49.8302
RA_OF_ASC_NODE = 124.7420
ARG_OF_PERICENTER = 182.2209
MEAN_ANOMALY   = 177.7211

EPHEMERIS_TYPE = 0
CLASSIFICATION_TYPE = U
NORAD_CAT_ID   = 67720
ELEMENT_SET_NO = 999
REV_AT_EPOCH   = 134
BSTAR          = .53180574E-2
MEAN_MOTION_DOT = .201725E-2
MEAN_MOTION_DDOT = 0

CCSDS_OMM_VERS = 2.0
CREATION_DATE  = 
ORIGINATOR     = 

OBJECT_NAME    = 2026-027A
OBJECT_ID      = 2026-027A
CENTER_NAME    = EARTH
REF_FRAME      = TEME
TIME_SYSTEM    = UTC
MEAN_ELEMENT_THEORY = SGP/SGP4

EPOCH          = 2026-02-16T06:32:41.464896
MEAN_MOTION    = 15.17280095
ECCENTRICITY   = .00091484
INCLINATION    = 97.4876
RA_OF_ASC_NODE = 176.5227
ARG_OF_PERICENTER = 275.0483
MEAN_ANOMALY   = 84.9706

EPHEMERIS_TYPE = 0
CLASSIFICATION_TYPE = U
NORAD_CAT_ID   = 67746
ELEMENT_SET_NO = 999
REV_AT_EPOCH   = 61
BSTAR          = .47044565E-3
MEAN_MOTION_DOT = .9317E-4
MEAN_MOTION_DDOT = 0

CCSDS_OMM_VERS = 2.0
CREATION_DATE  = 
ORIGINATOR     = 

OBJECT_NAME    = 2026-027B
OBJECT_ID      = 2026-027B
CENTER_NAME    = EARTH
REF_FRAME      = TEME
TIME_SYSTEM    = UTC
MEAN_ELEMENT_THEORY = SGP/SGP4

EPOCH          = 2026-02-16T06:32:18.407328
MEAN_MOTION    = 15.17381476
ECCENTRICITY   = .00093232
INCLINATION    = 97.4871
RA_OF_ASC_NODE = 176.5227
ARG_OF_PERICENTER = 277.6782
MEAN_ANOMALY   = 82.3392

EPHEMERIS_TYPE = 0
CLASSIFICATION_TYPE = U
NORAD_CAT_ID   = 67747
ELEMENT_SET_NO = 999
REV_AT_EPOCH   = 61
BSTAR          = .46663543E-3
MEAN_MOTION_DOT = .9268E-4
MEAN_MOTION_DDOT = 0

CCSDS_OMM_VERS = 2.0
CREATION_DATE  = 
ORIGINATOR     = 

OBJECT_NAME    = 2027-027C
OBJECT_ID      = 2027-027C
CENTER_NAME    = EARTH
REF_FRAME      = TEME
TIME_SYSTEM    = UTC
MEAN_ELEMENT_THEORY = SGP/SGP4

EPOCH          = 2026-02-16T06:31:45.521760
MEAN_MOTION    = 15.17514047
ECCENTRICITY   = .00097676
INCLINATION    = 97.4882
RA_OF_ASC_NODE = 176.5239
ARG_OF_PERICENTER = 280.8790
MEAN_ANOMALY   = 79.1344

EPHEMERIS_TYPE = 0
CLASSIFICATION_TYPE = U
NORAD_CAT_ID   = 67748
ELEMENT_SET_NO = 999
REV_AT_EPOCH   = 61
BSTAR          = .30459076E-3
MEAN_MOTION_DOT = .6047E-4
MEAN_MOTION_DDOT = 0

CCSDS_OMM_VERS = 2.0
CREATION_DATE  = 
ORIGINATOR     = 

OBJECT_NAME    = 2026-027D
OBJECT_ID      = 2026-027D
CENTER_NAME    = EARTH
REF_FRAME      = TEME
TIME_SYSTEM    = UTC
MEAN_ELEMENT_THEORY = SGP/SGP4

EPOCH          = 2026-02-16T06:31:13.571040
MEAN_MOTION    = 15.17670907
ECCENTRICITY   = .00095673
INCLINATION    = 97.4879
RA_OF_ASC_NODE = 176.5243
ARG_OF_PERICENTER = 285.1868
MEAN_ANOMALY   = 74.8307

EPHEMERIS_TYPE = 0
CLASSIFICATION_TYPE = U
NORAD_CAT_ID   = 67749
ELEMENT_SET_NO = 999
REV_AT_EPOCH   = 56
BSTAR          = .4899369E-3
MEAN_MOTION_DOT = .9817E-4
MEAN_MOTION_DDOT = 0

