STARLINK-36708          
1 67713U 26025W   26047.25002315 -.01072257  39028-3 -16912-2 0  9998
2 67713  97.2759 157.6222 0001391  50.5425   5.2978 16.03929288  2466
STARLINK-36702          
1 67714U 26025X   26047.25002315 -.01093879  40403-3 -17455-2 0  9994
2 67714  97.2759 157.6209 0001562  50.1484   2.3086 16.03735485  2195
STARLINK-36718          
1 67715U 26025Y   26047.25002315 -.01062926  38621-3 -16293-2 0  9992
2 67715  97.2760 157.6260 0001315  54.1652   9.6135 16.04406023  2405
STARLINK-36715          
1 67716U 26025Z   26047.25002315 -.01065225  38672-3 -16548-2 0  9997
2 67716  97.2757 157.6243 0001472  51.9726   8.0637 16.04182731  2467
STARLINK-36385          
1 67717U 26025AA  26047.25002315 -.01100065  40710-3 -17808-2 0  9996
2 67717  97.2762 157.6196 0001521  51.9381 356.4942 16.03494050  2461
CZ-2F DEB               
1 67718U 26024E   26047.25511568  .00263491  00000+0  53008-2 0  9997
2 67718  50.3138 123.3407 0262839 195.7727 163.4927 15.16116406  1373
CZ-2F DEB               
1 67719U 26024F   26047.30177445  .00194151  00000+0  49908-2 0  9996
2 67719  49.7910 124.3295 0335303 185.7964 173.9053 14.96876595  1037
CZ-2F DEB               
1 67720U 26024G   26047.25121962  .00201725  00000+0  53181-2 0  9999
2 67720  49.8302 124.7420 0346142 182.2209 177.7211 14.94186481  1344
2026-027A               
1 67746U 26027A   26047.27270214  .00009317  00000+0  47045-3 0  9993
2 67746  97.4876 176.5227 0009148 275.0483  84.9706 15.17280095   613
2026-027B               
1 67747U 26027B   26047.27243527  .00009268  00000+0  46664-3 0  9992
2 67747  97.4871 176.5227 0009323 277.6782  82.3392 15.17381476   612
2027-027C               
1 67748U 27027C   26047.27205465  .00006047  00000+0  30459-3 0  9990
2 67748  97.4882 176.5239 0009767 280.8790  79.1344 15.17514047   618
2026-027D               
1 67749U 26027D   26047.27168485  .00009817  00000+0  48994-3 0  9991
2 67749  97.4879 176.5243 0009567 285.1868  74.8307 15.17670907   565
